STARLINK-5720           
1 55619U 23020BC  23053.91667824  .00073849  00000+0  56441-3 0  9992
2 55619  43.0009 291.6978 0001962 237.9324 263.8334 15.71237015  1309
STARLINK-5718           
1 55620U 23020BD  23054.08216187  .00093576  00000+0  70599-3 0  9994
2 55620  43.0005 290.6955 0002450 230.8765 129.1885 15.71456140  1728
STARLINK-5709           
1 55621U 23020BE  23054.08267736 -.00008788  00000+0 -63631-4 0  9994
2 55621  43.0005 290.6992 0001849 260.0768  99.9891 15.71355656  1720
STARLINK-5702           
1 55622U 23020BF  23054.08225872  .00035355  00000+0  27185-3 0  9991
2 55622  43.0003 290.6958 0001889 256.1848 103.8810 15.71359837  1721
STARLINK-5698           
1 55623U 23020BG  23054.08206196  .00111746  00000+0  84161-3 0  9996
2 55623  43.0008 290.6940 0002303 246.5756 113.4870 15.71427381  1724
FALCON 9 DEB            
1 55624U 23020BH  23053.70486631  .00285149  37887-4  89332-3 0  9991
2 55624  43.0092 292.1355 0025056  19.1448 341.0363 15.90140593  1675
FALCON 9 DEB            
1 55625U 23020BJ  23054.07849830  .00334634  49813-4  10040-2 0  9992
2 55625  43.0066 289.7717 0020992  20.2051 339.9651 15.91117881  1736
FALCON 9 DEB            
1 55626U 23020BK  23054.07086933  .00358394  56923-4  99623-3 0  9994
2 55626  43.0030 289.7036 0022405   8.0601 352.0630 15.92506368  1734
FALCON 9 DEB            
1 55627U 23020BL  23054.06965611  .00326228  48347-4  91469-3 0  9995
2 55627  43.0024 289.6910 0021048   7.9491 352.1715 15.92408755  1731
STARLINK A              
1 55628U 23021A   23054.33334491 -.01108517  36938-3 -30348-2 0  9995
2 55628  70.0000 134.8450 0030023 165.2006  96.2881 15.93030092  1409
STARLINK B              
1 55629U 23021B   23054.33334491 -.01108188  36914-3 -30355-2 0  9992
2 55629  69.9999 134.8449 0030040 165.2360  96.0768 15.93019214  1409
STARLINK C              
1 55630U 23021C   23054.33334491 -.01108658  36950-3 -30401-2 0  9998
2 55630  70.0000 134.8446 0029303 165.5424  96.2067 15.93038705  1408
STARLINK D              
1 55631U 23021D   23054.33334491 -.01096100  36202-3 -29918-2 0  9998
2 55631  69.9999 134.8435 0029823 165.1970  97.5755 15.93095633  1401
STARLINK E              
1 55632U 23021E   23054.33334491 -.01108855  36970-3 -30369-2 0  9994
2 55632  70.0000 134.8442 0029326 165.3500  96.7334 15.93060643  1402
STARLINK F              
1 55633U 23021F   23054.33334491 -.01109053  36987-3 -30374-2 0  9990
2 55633  70.0000 134.8439 0029121 165.4787  96.7636 15.93071876  1405
STARLINK G              
1 55634U 23021G   23054.33334491 -.01109056  36979-3 -30409-2 0  9994
2 55634  70.0000 134.8444 0029122 165.5985  96.3025 15.93050221  1403
STARLINK H              
1 55635U 23021H   23054.33334491 -.01097240  36288-3 -29602-2 0  9992
2 55635  69.9999 134.8421 0032859 171.4066  92.0346 15.93140604  1404
STARLINK J              
1 55636U 23021J   23054.33334491 -.01095977  36190-3 -29953-2 0  9999
2 55636  69.9999 134.8438 0029580 165.4671  97.1360 15.93084732  1406
STARLINK K              
1 55637U 23021K   23054.33334491 -.01096763  36262-3 -29854-2 0  9994
2 55637  69.9999 134.8425 0029763 165.0626  98.5396 15.93150535  1401
STARLINK L              
1 55638U 23021L   23054.33334491 -.01108714  36970-3 -30290-2 0  9997
2 55638  70.0000 134.8437 0029784 165.6660  96.7507 15.93082427  1406
STARLINK M              
1 55639U 23021M   23054.33334491 -.01097085  36302-3 -29730-2 0  9992
2 55639  69.9999 134.8414 0030293 165.2167  99.2208 15.93205015  1407
STARLINK N              
1 55640U 23021N   23054.33334491 -.01110577  37150-3 -30069-2 0  9995
2 55640  69.9999 134.8405 0029697 165.2914  99.8367 15.93256274  1400
STARLINK P              
1 55641U 23021P   23054.33334491 -.01096975  36291-3 -29780-2 0  9994
2 55641  69.9999 134.8416 0029886 165.1961  99.0766 15.93194023  1402
STARLINK Q              
1 55642U 23021Q   23054.33334491 -.01096310  36219-3 -29949-2 0  9995
2 55642  69.9999 134.8433 0029326 165.4488  97.4885 15.93106672  1405
STARLINK R              
1 55643U 23021R   23054.33334491 -.01097303  36323-3 -29730-2 0  9993
2 55643  69.9999 134.8410 0029972 165.6294  99.1562 15.93226461  1405
STARLINK S              
1 55644U 23021S   23054.33334491 -.01096749  36269-3 -29802-2 0  9996
2 55644  69.9999 134.8421 0029961 165.0638  98.8753 15.93172176  1403
STARLINK T              
1 55645U 23021T   23054.33334491 -.01111320  37216-3 -30059-2 0  9999
2 55645  69.9998 134.8394 0029057 165.2592 100.7489 15.93309581  1400
STARLINK U              
1 55646U 23021U   23054.33334491 -.01096838  36259-3 -30013-2 0  9992
2 55646  69.9999 134.8428 0028296 165.8447  97.3781 15.93129958  1403
STARLINK V              
1 55647U 23021V   23054.33334491 -.01098024  36387-3 -29688-2 0  9990
2 55647  69.9999 134.8399 0029689 165.3228 100.3036 15.93280801  1403
STARLINK W              
1 55648U 23021W   23054.33334491 -.01096808  36277-3 -29763-2 0  9991
2 55648  69.9999 134.8419 0030224 165.1654  98.9328 15.93183270  1403
STARLINK X              
1 55649U 23021X   23054.33334491 -.01097946  36375-3 -29733-2 0  9992
2 55649  69.9999 134.8403 0029537 165.2201 100.0645 15.93259319  1406
STARLINK Y              
1 55650U 23021Y   23054.33334491 -.01097678  36342-3 -29805-2 0  9990
2 55650  69.9999 134.8412 0029409 165.2114  99.3890 15.93216265  1404
STARLINK Z              
1 55651U 23021Z   23054.33334491 -.01096956  36279-3 -29887-2 0  9998
2 55651  69.9999 134.8422 0029194 165.3916  98.2875 15.93163792  1405
STARLINK AA             
1 55652U 23021AA  23054.33334491 -.01097845  36360-3 -29782-2 0  9992
2 55652  69.9999 134.8408 0029341 165.2007  99.7635 15.93237275  1402
STARLINK AB             
1 55653U 23021AB  23054.33334491 -.01098161  36400-3 -29665-2 0  9990
2 55653  69.9999 134.8397 0029810 165.0868 100.7301 15.93291089  1400
STARLINK AC             
1 55654U 23021AC  23054.33334491 -.01096462  36232-3 -29965-2 0  9999
2 55654  69.9999 134.8430 0028956 165.6871  97.3649 15.93118979  1401
STARLINK AD             
1 55655U 23021AD  23054.33334491 -.01111811  37271-3 -29936-2 0  9998
2 55655  69.9999 134.8381 0029427 165.1333 101.8637 15.93374892  1405
STARLINK AE             
1 55656U 23021AE  23054.33334491 -.01111250  37216-3 -30010-2 0  9990
2 55656  69.9998 134.8392 0029397 165.2696 100.8896 15.93320749  1404
STARLINK AF             
1 55657U 23021AF  23054.33334491 -.01111514  37244-3 -29955-2 0  9991
2 55657  69.9998 134.8385 0029519 165.1652 101.5054 15.93352997  1408
STARLINK AG             
1 55658U 23021AG  23054.33334491 -.01097754  36367-3 -29712-2 0  9997
2 55658  69.9999 134.8402 0029520 165.3242 100.1210 15.93270178  1408
STARLINK AH             
1 55659U 23021AH  23054.33334491 -.01111518  37249-3 -29926-2 0  9990
2 55659  69.9999 134.8383 0029643 165.1928 101.6172 15.93364474  1408
STARLINK AJ             
1 55660U 23021AJ  23054.33334491 -.01111066  37208-3 -29935-2 0  9995
2 55660  69.9998 134.8390 0030005 165.1922 101.1368 15.93331391  1409
STARLINK AK             
1 55661U 23021AK  23054.33334491 -.01107157  36990-3 -29748-2 0  9991
2 55661  69.9999 134.8377 0029792 165.1061 102.2208 15.93393780  1406
STARLINK AL             
1 55662U 23021AL  23054.33334491 -.01111525  37241-3 -29995-2 0  9990
2 55662  69.9998 134.8388 0029258 165.2697 101.2323 15.93342251  1405
STARLINK AM             
1 55663U 23021AM  23054.33334491 -.01110786  37235-3 -29773-2 0  9996
2 55663  69.9998 134.8367 0029633 165.3545 102.8543 15.93448462  1405
STARLINK AN             
1 55664U 23021AN  23054.33334491 -.01111804  37274-3 -29945-2 0  9993
2 55664  69.9999 134.8379 0029126 165.4600 101.7181 15.93385299  1404
STARLINK AP             
1 55665U 23021AP  23054.33334491 -.01110508  37206-3 -29832-2 0  9994
2 55665  69.9998 134.8373 0029436 165.2466 102.4082 15.93417388  1403
STARLINK AQ             
1 55666U 23021AQ  23054.33334491 -.01109938  37175-3 -29667-2 0  9991
2 55666  69.9998 134.8372 0030955 165.0026 102.8424 15.93427289  1406
STARLINK AR             
1 55667U 23021AR  23054.33334491 -.01111062  37257-3 -29804-2 0  9997
2 55667  69.9998 134.8364 0029149 165.3737 102.9831 15.93459793  1401
STARLINK AS             
1 55668U 23021AS  23054.33334491 -.01110249  37186-3 -29864-2 0  9991
2 55668  69.9999 134.8375 0029186 165.5845 101.9073 15.93406371  1409
STARLINK AT             
1 55669U 23021AT  23054.33334491 -.01112377  37330-3 -29857-2 0  9999
2 55669  69.9998 134.8368 0029328 165.3777 102.6402 15.93439276  1405
STARLINK AU             
1 55670U 23021AU  23054.33334491 -.01111083  37262-3 -29734-2 0  9992
2 55670  69.9998 134.8364 0029765 164.9998 103.5138 15.93470805  1407
STARLINK AV             
1 55671U 23021AV  23054.33334491 -.01111455  37310-3 -29636-2 0  9991
2 55671  69.9998 134.8350 0029826 165.1981 104.3111 15.93535439  1401
STARLINK AW             
1 55672U 23021AW  23054.33334491 -.01111205  37290-3 -29644-2 0  9991
2 55672  69.9998 134.8354 0029863 165.5081 103.8526 15.93524144  1407
STARLINK AX             
1 55673U 23021AX  23054.33334491 -.01111170  37276-3 -29725-2 0  9997
2 55673  69.9998 134.8358 0029505 165.2810 103.5747 15.93492086  1403
STARLINK AY             
1 55674U 23021AY  23054.33334491 -.01111096  37279-3 -29655-2 0  9990
2 55674  69.9998 134.8356 0029898 165.5444 103.6465 15.93513443  1402
STARLINK AZ             
1 55675U 23021AZ  23054.33334491 -.01110751  37245-3 -29692-2 0  9992
2 55675  69.9998 134.8360 0029964 164.9939 103.7126 15.93480674  1408
STARLINK BA             
1 55676U 23021BA  23054.33334491 -.01111472  37315-3 -29623-2 0  9996
2 55676  69.9998 134.8350 0029781 165.2541 104.4114 15.93546391  1402
STARLINK BB             
1 55677U 23021BB  23054.33334491 -.01111568  37325-3 -29596-2 0  9993
2 55677  69.9998 134.8346 0029941 165.2809 104.5871 15.93556262  1402
